OBJECT_NAME,OBJECT_ID,EPOCH,MEAN_MOTION,ECCENTRICITY,INCLINATION,RA_OF_ASC_NODE,ARG_OF_PERICENTER,MEAN_ANOMALY,EPHEMERIS_TYPE,CLASSIFICATION_TYPE,NORAD_CAT_ID,ELEMENT_SET_NO,REV_AT_EPOCH,BSTAR,MEAN_MOTION_DOT,MEAN_MOTION_DDOT
SATELIOT_3,2024-149CN,2026-07-19T17:31:41.458080,14.98168165,.0004596,97.6809,276.9096,345.4375,14.6715,0,U,60552,999,10495,.46683E-4,.495E-5,0
BRO-15,2024-149CP,2026-07-19T17:55:51.280320,14.96225650,.0007232,97.6789,275.5106,349.8120,10.2954,0,U,60553,999,10487,.58799E-4,.606E-5,0
UM5-RIBAT,2024-149CQ,2026-07-19T19:12:53.141184,15.01228925,.0000417,97.6596,278.1576,280.9214,79.1963,0,U,60554,999,10508,.85957E-4,.1044E-4,0
UM5-EOSAT,2024-149CR,2026-07-19T18:09:10.170144,15.01744873,.0008926,97.6777,279.1298,23.6910,336.4723,0,U,60555,999,10510,.12628E-3,.1584E-4,0
LASARSAT,2024-247Q,2026-07-19T16:58:19.316064,15.48233791,.0008114,44.9738,79.2000,194.5262,165.5396,0,U,62391,999,8835,.37176E-3,.1974E-3,0
CROCUBE,2024-247T,2026-07-18T22:53:00.364416,15.50381393,.00081477,44.9710,80.2241,196.1185,163.9448,0,U,62394,999,8827,.43401259E-3,.24965E-3,0
TEVEL2-4,2025-052D,2026-07-19T15:25:12.513216,15.35661719,.000317,97.3853,97.1061,43.0133,317.1357,0,U,63213,999,7509,.29789E-3,.10253E-3,0
TEVEL2-5,2025-052E,2026-07-19T14:26:22.858080,15.35471509,.0003191,97.3852,97.0033,45.3967,314.7537,0,U,63214,999,7508,.30684E-3,.10499E-3,0
TEVEL2-6,2025-052F,2026-07-19T16:19:03.343584,15.35437175,.0003266,97.3856,97.0665,47.0245,313.1272,0,U,63215,999,7509,.29179E-3,.9969E-4,0
TEVEL2-1,2025-052H,2026-07-19T11:02:13.371936,15.34859218,.00039185,97.3828,96.4310,51.1832,308.9761,0,U,63217,999,7504,.287441E-3,.964E-4,0
TEVEL2-3,2025-052J,2026-07-19T06:11:04.053120,15.34918835,.00037425,97.3840,96.2545,52.6845,307.4739,0,U,63218,999,7501,.28484641E-3,.957E-4,0
TEVEL2-2,2025-052K,2026-07-19T18:51:45.567648,15.34877493,.0003943,97.3829,96.7604,50.4643,309.6948,0,U,63219,999,7509,.29478E-3,.9894E-4,0
TEVEL2-9,2025-052AD,2026-07-19T05:15:06.905952,15.32806992,.00073214,97.3893,95.4966,45.4826,314.7014,0,U,63237,999,7493,.27748568E-3,.8721E-4,0
TEVEL2-7,2025-052AE,2026-07-19T11:05:19.326336,15.32492190,.00074123,97.3895,95.6412,45.1189,315.0654,0,U,63238,999,7496,.27686013E-3,.8616E-4,0
TEVEL2-8,2025-052AF,2026-07-19T05:01:32.827872,15.32473641,.00074778,97.3897,95.3655,46.6510,313.5354,0,U,63239,999,7492,.27077917E-3,.842E-4,0
FORESAIL-1 PRIME,2025-276DS,2026-07-19T17:45:13.804704,15.18959707,.0002501,97.4184,273.4181,34.1668,325.9727,0,U,66778,999,3534,.11246E-3,.2283E-4,0
