SATELIOT_3              
1 60552U 24149CN  26200.73034095  .00000495  00000+0  46683-4 0  9997
2 60552  97.6809 276.9096 0004596 345.4375  14.6715 14.98168165104955
BRO-15                  
1 60553U 24149CP  26200.74712130  .00000606  00000+0  58799-4 0  9997
2 60553  97.6789 275.5106 0007232 349.8120  10.2954 14.96225650104875
UM5-RIBAT               
1 60554U 24149CQ  26200.80061506  .00001044  00000+0  85957-4 0  9992
2 60554  97.6596 278.1576 0000417 280.9214  79.1963 15.01228925105082
UM5-EOSAT               
1 60555U 24149CR  26200.75636771  .00001584  00000+0  12628-3 0  9992
2 60555  97.6777 279.1298 0008926  23.6910 336.4723 15.01744873105105
LASARSAT                
1 62391U 24247Q   26200.70716801  .00019740  00000+0  37176-3 0  9997
2 62391  44.9738  79.2000 0008114 194.5262 165.5396 15.48233791 88351
CROCUBE                 
1 62394U 24247T   26199.95347644  .00024965  00000+0  43401-3 0  9992
2 62394  44.9710  80.2241 0008147 196.1185 163.9448 15.50381393 88277
TEVEL2-4                
1 63213U 25052D   26200.64250594  .00010253  00000+0  29789-3 0  9992
2 63213  97.3853  97.1061 0003170  43.0133 317.1357 15.35661719 75093
TEVEL2-5                
1 63214U 25052E   26200.60165345  .00010499  00000+0  30684-3 0  9996
2 63214  97.3852  97.0033 0003191  45.3967 314.7537 15.35471509 75082
TEVEL2-6                
1 63215U 25052F   26200.67989981  .00009969  00000+0  29179-3 0  9991
2 63215  97.3856  97.0665 0003266  47.0245 313.1272 15.35437175 75090
TEVEL2-1                
1 63217U 25052H   26200.45987699  .00009640  00000+0  28744-3 0  9996
2 63217  97.3828  96.4310 0003918  51.1832 308.9761 15.34859218 75048
TEVEL2-3                
1 63218U 25052J   26200.25768580  .00009570  00000+0  28485-3 0  9995
2 63218  97.3840  96.2545 0003742  52.6845 307.4739 15.34918835 75013
TEVEL2-2                
1 63219U 25052K   26200.78594407  .00009894  00000+0  29478-3 0  9991
2 63219  97.3829  96.7604 0003943  50.4643 309.6948 15.34877493 75095
TEVEL2-9                
1 63237U 25052AD  26200.21882993  .00008721  00000+0  27749-3 0  9996
2 63237  97.3893  95.4966 0007321  45.4826 314.7014 15.32806992 74931
TEVEL2-7                
1 63238U 25052AE  26200.46202924  .00008616  00000+0  27686-3 0  9997
2 63238  97.3895  95.6412 0007412  45.1189 315.0654 15.32492190 74960
TEVEL2-8                
1 63239U 25052AF  26200.20940773  .00008420  00000+0  27078-3 0  9999
2 63239  97.3897  95.3655 0007477  46.6510 313.5354 15.32473641 74920
FORESAIL-1 PRIME        
1 66778U 25276DS  26200.73974311  .00002283  00000+0  11246-3 0  9992
2 66778  97.4184 273.4181 0002501  34.1668 325.9727 15.18959707 35343
